start=new Date('2022-07-01T00:00:00.000Z').valueOf();
sats=[{"RA_OF_ASC_NODE":"147.1351","TLE_LINE2":"2 47730  53.0536 147.1351 0002306  56.5028 303.6181 15.06386523 74512","MEAN_MOTION":"15.06386523","LAUNCH_DATE":"2021-03-04","CLASSIFICATION_TYPE":"U","REV_AT_EPOCH":"7451","ARG_OF_PERICENTER":"56.5028","CENTER_NAME":"EARTH","MEAN_ANOMALY":"303.6181","REF_FRAME":"TEME","FILE":"3505946","ECCENTRICITY":"0.00023060","OBJECT_TYPE":"PAYLOAD","SEMIMAJOR_AXIS":"6925.390","RCS_SIZE":"LARGE","SITE":"AFETR","NORAD_CAT_ID":"47730","MEAN_MOTION_DDOT":"0.0000000000000","PERIOD":"95.593","OBJECT_ID":"2021-017J","APOAPSIS":"548.852","DECAY_DATE":null,"TLE_LINE1":"1 47730U 21017J   22181.89057901  .00001161  00000-0  96856-4 0  9992","EPOCH":"2022-06-30T21:22:26.026464","INCLINATION":"53.0536","ELEMENT_SET_NO":"999","MEAN_MOTION_DOT":"0.00001161","PERIAPSIS":"545.658","GP_ID":"207176545","TIME_SYSTEM":"UTC","EPHEMERIS_TYPE":"0","OBJECT_NAME":"STARLINK-2140","MEAN_ELEMENT_THEORY":"SGP4","BSTAR":"0.00009685600000","COUNTRY_CODE":"US"},{"SEMIMAJOR_AXIS":"6925.386","OBJECT_TYPE":"PAYLOAD","NORAD_CAT_ID":"47731","RCS_SIZE":"LARGE","SITE":"AFETR","MEAN_MOTION_DDOT":"0.0000000000000","LAUNCH_DATE":"2021-03-04","CLASSIFICATION_TYPE":"U","MEAN_MOTION":"15.06387684","TLE_LINE2":"2 47731  53.0543 142.1041 0002325  55.8680 304.2529 15.06387684 74599","RA_OF_ASC_NODE":"142.1041","ARG_OF_PERICENTER":"55.8680","REV_AT_EPOCH":"7459","FILE":"3505946","REF_FRAME":"TEME","MEAN_ANOMALY":"304.2529","CENTER_NAME":"EARTH","ECCENTRICITY":"0.00023250","MEAN_MOTION_DOT":"0.00000658","OBJECT_NAME":"STARLINK-2141","EPHEMERIS_TYPE":"0","TIME_SYSTEM":"UTC","GP_ID":"207177293","PERIAPSIS":"545.641","COUNTRY_CODE":"US","BSTAR":"0.00006312400000","MEAN_ELEMENT_THEORY":"SGP4","TLE_LINE1":"1 47731U 21017K   22181.89656131  .00000658  00000-0  63124-4 0  9995","DECAY_DATE":null,"APOAPSIS":"548.861","OBJECT_ID":"2021-017K","PERIOD":"95.593","INCLINATION":"53.0543","EPOCH":"2022-06-30T21:31:02.897184","ELEMENT_SET_NO":"999"},{"FILE":"3505946","REF_FRAME":"TEME","CENTER_NAME":"EARTH","MEAN_ANOMALY":"272.0788","ECCENTRICITY":"0.00015850","LAUNCH_DATE":"2021-03-04","CLASSIFICATION_TYPE":"U","TLE_LINE2":"2 47732  53.0567  57.4660 0001585  88.0382 272.0788 15.06395695 75776","MEAN_MOTION":"15.06395695","RA_OF_ASC_NODE":"57.4660","ARG_OF_PERICENTER":"88.0382","REV_AT_EPOCH":"7577","MEAN_MOTION_DDOT":"0.0000000000000","SEMIMAJOR_AXIS":"6925.362","OBJECT_TYPE":"PAYLOAD","NORAD_CAT_ID":"47732","RCS_SIZE":"LARGE","SITE":"AFETR","INCLINATION":"53.0567","EPOCH":"2022-06-30T20:51:56.667168","ELEMENT_SET_NO":"999","TLE_LINE1":"1 47732U 21017L   22181.86940587  .00000041  00000-0  21624-4 0  9999","DECAY_DATE":null,"OBJECT_ID":"2021-017L","APOAPSIS":"548.324","PERIOD":"95.592","TIME_SYSTEM":"UTC","EPHEMERIS_TYPE":"0","OBJECT_NAME":"STARLINK-2142","GP_ID":"207176044","PERIAPSIS":"546.129","COUNTRY_CODE":"US","BSTAR":"0.00002162400000","MEAN_ELEMENT_THEORY":"SGP4","MEAN_MOTION_DOT":"0.00000041"},{"MEAN_MOTION_DDOT":"0.0000000000000","NORAD_CAT_ID":"47733","RCS_SIZE":"LARGE","SITE":"AFETR","SEMIMAJOR_AXIS":"6925.360","OBJECT_TYPE":"PAYLOAD","ECCENTRICITY":"0.00023590","FILE":"3505946","REF_FRAME":"TEME","MEAN_ANOMALY":"301.5143","CENTER_NAME":"EARTH","ARG_OF_PERICENTER":"58.6076","REV_AT_EPOCH":"7449","LAUNCH_DATE":"2021-03-04","CLASSIFICATION_TYPE":"U","MEAN_MOTION":"15.06396255","TLE_LINE2":"2 47733  53.0549 152.1477 0002359  58.6076 301.5143 15.06396255 74493","RA_OF_ASC_NODE":"152.1477","COUNTRY_CODE":"US","BSTAR":"0.00006854600000","MEAN_ELEMENT_THEORY":"SGP4","OBJECT_NAME":"STARLINK-2143","EPHEMERIS_TYPE":"0","TIME_SYSTEM":"UTC","GP_ID":"207176293","PERIAPSIS":"545.591","MEAN_MOTION_DOT":"0.00000739","ELEMENT_SET_NO":"999","INCLINATION":"53.0549","EPOCH":"2022-06-30T21:13:47.086464","TLE_LINE1":"1 47733U 21017M   22181.88457276  .00000739  00000-0  68546-4 0  9998","DECAY_DATE":null,"OBJECT_ID":"2021-017M","APOAPSIS":"548.859","PERIOD":"95.592"},{"MEAN_MOTION_DOT":"0.00000945","MEAN_ELEMENT_THEORY":"SGP4","BSTAR":"0.00008238100000","COUNTRY_CODE":"US","PERIAPSIS":"545.899","GP_ID":"207177045","OBJECT_NAME":"STARLINK-2144","EPHEMERIS_TYPE":"0","TIME_SYSTEM":"UTC","PERIOD":"95.592","OBJECT_ID":"2021-017N","APOAPSIS":"548.554","DECAY_DATE":null,"TLE_LINE1":"1 47734U 21017N   22181.90393208  .00000945  00000-0  82381-4 0  9998","ELEMENT_SET_NO":"999","EPOCH":"2022-06-30T21:41:39.731712","INCLINATION":"53.0542","SITE":"AFETR","RCS_SIZE":"LARGE","NORAD_CAT_ID":"47734","OBJECT_TYPE":"PAYLOAD","SEMIMAJOR_AXIS":"6925.361","MEAN_MOTION_DDOT":"0.0000000000000","REV_AT_EPOCH":"7460","ARG_OF_PERICENTER":"65.5215","RA_OF_ASC_NODE":"142.0686","MEAN_MOTION":"15.06395865","TLE_LINE2":"2 47734  53.0542 142.0686 0001917  65.5215 294.5974 15.06395865 74600","CLASSIFICATION_TYPE":"U","LAUNCH_DATE":"2021-03-04","ECCENTRICITY":"0.00019170","MEAN_ANOMALY":"294.5974","CENTER_NAME":"EARTH","REF_FRAME":"TEME","FILE":"3505946"},{"MEAN_MOTION_DOT":"0.00001842","BSTAR":"0.00014260000000","MEAN_ELEMENT_THEORY":"SGP4","COUNTRY_CODE":"US","PERIAPSIS":"546.102","OBJECT_NAME":"STARLINK-2146","EPHEMERIS_TYPE":"0","TIME_SYSTEM":"UTC","GP_ID":"207176794","APOAPSIS":"548.404","OBJECT_ID":"2021-017P","PERIOD":"95.593","TLE_LINE1":"1 47735U 21017P   22181.85373564  .00001842  00000-0  14260-3 0  9993","DECAY_DATE":null,"ELEMENT_SET_NO":"999","EPOCH":"2022-06-30T20:29:22.759296","INCLINATION":"53.0571","RCS_SIZE":"LARGE","SITE":"AFETR","NORAD_CAT_ID":"47735","OBJECT_TYPE":"PAYLOAD","SEMIMAJOR_AXIS":"6925.388","MEAN_MOTION_DDOT":"0.0000000000000","ARG_OF_PERICENTER":"59.2317","REV_AT_EPOCH":"7562","MEAN_MOTION":"15.06387237","TLE_LINE2":"2 47735  53.0571  67.4597 0001662  59.2317 300.8835 15.06387237 75628","RA_OF_ASC_NODE":"67.4597","LAUNCH_DATE":"2021-03-04","CLASSIFICATION_TYPE":"U","ECCENTRICITY":"0.00016620","CENTER_NAME":"EARTH","MEAN_ANOMALY":"300.8835","FILE":"3505946","REF_FRAME":"TEME"},{"BSTAR":"0.00003553000000","MEAN_ELEMENT_THEORY":"SGP4","COUNTRY_CODE":"US","PERIAPSIS":"545.888","OBJECT_NAME":"STARLINK-2147","EPHEMERIS_TYPE":"0","TIME_SYSTEM":"UTC","GP_ID":"207175545","MEAN_MOTION_DOT":"0.00000247","ELEMENT_SET_NO":"999","EPOCH":"2022-06-30T19:19:40.636416","INCLINATION":"53.0543","APOAPSIS":"548.584","OBJECT_ID":"2021-017Q","PERIOD":"95.593","TLE_LINE1":"1 47736U 21017Q   22181.80533144  .00000247  00000-0  35530-4 0  9993","DECAY_DATE":null,"MEAN_MOTION_DDOT":"0.0000000000000","RCS_SIZE":"LARGE","SITE":"AFETR","NORAD_CAT_ID":"47736","OBJECT_TYPE":"PAYLOAD","SEMIMAJOR_AXIS":"6925.371","ECCENTRICITY":"0.00019460","MEAN_ANOMALY":"298.9583","CENTER_NAME":"EARTH","FILE":"3505946","REF_FRAME":"TEME","ARG_OF_PERICENTER":"61.1601","REV_AT_EPOCH":"7476","TLE_LINE2":"2 47736  53.0543 132.5164 0001946  61.1601 298.9583 15.06392626 74764","MEAN_MOTION":"15.06392626","RA_OF_ASC_NODE":"132.5164","LAUNCH_DATE":"2021-03-04","CLASSIFICATION_TYPE":"U"},{"RCS_SIZE":"LARGE","SITE":"AFETR","NORAD_CAT_ID":"47737","OBJECT_TYPE":"PAYLOAD","SEMIMAJOR_AXIS":"6852.789","MEAN_MOTION_DDOT":"0.0000000000000","REV_AT_EPOCH":"7530","ARG_OF_PERICENTER":"62.2319","RA_OF_ASC_NODE":"45.9865","TLE_LINE2":"2 47737  53.0547  45.9865 0002212  62.2319 297.8905 15.30388607 75307","MEAN_MOTION":"15.30388607","LAUNCH_DATE":"2021-03-04","CLASSIFICATION_TYPE":"U","ECCENTRICITY":"0.00022120","MEAN_ANOMALY":"297.8905","CENTER_NAME":"EARTH","REF_FRAME":"TEME","FILE":"3505857","MEAN_MOTION_DOT":"0.00001845","MEAN_ELEMENT_THEORY":"SGP4","BSTAR":"0.00007400100000","COUNTRY_CODE":"US","PERIAPSIS":"473.138","GP_ID":"207153640","TIME_SYSTEM":"UTC","EPHEMERIS_TYPE":"0","OBJECT_NAME":"STARLINK-2148","PERIOD":"94.094","APOAPSIS":"476.170","OBJECT_ID":"2021-017R","DECAY_DATE":null,"TLE_LINE1":"1 47737U 21017R   22181.86598695  .00001845  00000-0  74001-4 0  9993","ELEMENT_SET_NO":"999","EPOCH":"2022-06-30T20:47:01.272480","INCLINATION":"53.0547"},{"ELEMENT_SET_NO":"999","INCLINATION":"53.0532","EPOCH":"2022-06-30T21:53:38.869152","DECAY_DATE":null,"TLE_LINE1":"1 47738U 21017S   22181.91225543  .00000866  00000-0  77037-4 0  9993","PERIOD":"95.593","APOAPSIS":"548.467","OBJECT_ID":"2021-017S","COUNTRY_CODE":"US","MEAN_ELEMENT_THEORY":"SGP4","BSTAR":"0.00007703700000","GP_ID":"207176546","EPHEMERIS_TYPE":"0","OBJECT_NAME":"STARLINK-2149","TIME_SYSTEM":"UTC","PERIAPSIS":"545.998","MEAN_MOTION_DOT":"0.00000866","ECCENTRICITY":"0.00017830","REF_FRAME":"TEME","FILE":"3505946","MEAN_ANOMALY":"302.0689","CENTER_NAME":"EARTH","REV_AT_EPOCH":"7477","ARG_OF_PERICENTER":"58.0473","CLASSIFICATION_TYPE":"U","LAUNCH_DATE":"2021-03-04","RA_OF_ASC_NODE":"132.2948","MEAN_MOTION":"15.06393870","TLE_LINE2":"2 47738  53.0532 132.2948 0001783  58.0473 302.0689 15.06393870 74779","MEAN_MOTION_DDOT":"0.0000000000000","NORAD_CAT_ID":"47738","SITE":"AFETR","RCS_SIZE":"LARGE","SEMIMAJOR_AXIS":"6925.367","OBJECT_TYPE":"PAYLOAD"},{"MEAN_MOTION_DOT":"0.00000861","PERIAPSIS":"545.967","GP_ID":"207153704","TIME_SYSTEM":"UTC","EPHEMERIS_TYPE":"0","OBJECT_NAME":"STARLINK-2150","MEAN_ELEMENT_THEORY":"SGP4","BSTAR":"0.00007674300000","COUNTRY_CODE":"US","PERIOD":"95.593","OBJECT_ID":"2021-017T","APOAPSIS":"548.508","DECAY_DATE":null,"TLE_LINE1":"1 47739U 21017T   22181.66848964  .00000861  00000-0  76743-4 0  9992","EPOCH":"2022-06-30T16:02:37.504896","INCLINATION":"53.0550","ELEMENT_SET_NO":"999","OBJECT_TYPE":"PAYLOAD","SEMIMAJOR_AXIS":"6925.373","RCS_SIZE":"LARGE","SITE":"AFETR","NORAD_CAT_ID":"47739","MEAN_MOTION_DDOT":"0.0000000000000","RA_OF_ASC_NODE":"158.1336","TLE_LINE2":"2 47739  53.0550 158.1336 0001835  63.8105 296.3073 15.06392138 73713","MEAN_MOTION":"15.06392138","LAUNCH_DATE":"2021-03-04","CLASSIFICATION_TYPE":"U","REV_AT_EPOCH":"7371","ARG_OF_PERICENTER":"63.8105","CENTER_NAME":"EARTH","MEAN_ANOMALY":"296.3073","REF_FRAME":"TEME","FILE":"3505865","ECCENTRICITY":"0.00018350"}];
